#dP2021  8 24  0  0  0.00000000      96 __u+U ITR00 FIT  IAC
## 2172 172800.00000000   900.00000000 59450 0.0000000000000
+  113   C06C07C08C09C10C11C12C13C14C16C19C20C21C22C23C24C25
+        C26C27C28C29C30C32C33C34C35C36C37C38C39C40C41C42C43
+        C44C45C46E01E02E03E04E05E07E08E09E11E12E13E14E15E18
+        E19E21E24E25E26E27E30E31E33E36G01G02G03G04G05G06G07
+        G08G09G10G12G13G14G15G16G17G18G19G20G21G22G23G24G25
+        G26G27G28G29G30G31G32R01R02R03R04R05R07R08R09R11R12
+        R13R14R15R16R17R18R19R20R21R22R24  0  0  0  0  0  0
++         7  7  9  0  6  6  8  8  6  8  8  8  7  7  7  7  6
++         7  7  8  6  7  7  7  6  7  6  8  7  8  8  7  6  7
++         8  8  6  6  6  9  8  8  7  7  9  6  8  7  6  6  8
++         6  7  5  7  7  7  7  6  7  7  5  6  6  6  6  6  6
++         7  6  6  7  6  6  7  7  6  6  6  6  6  6  6  6  6
++         6  6  6  6  6  5  6  6  9  7  7  6  8  8  7  6  5
++         6  6  7  5  4  5  8  7  7  9  7  0  0  0  0  0  0
%c M  cc GPS ccc cccc cccc cccc cccc ccccc ccccc ccccc ccccc
%c cc cc ccc ccc cccc cccc cccc cccc ccccc ccccc ccccc ccccc
%f  0.0000000  0.000000000  0.00000000000  0.000000000000000
%f  0.0000000  0.000000000  0.00000000000  0.000000000000000
%i    0    0    0    0      0      0      0      0         0
%i    0    0    0    0      0      0      0      0         0
/* INFORMATION & ANALYSIS CENTER (IAC)      ULTRA-RAPID DATA
/* S/V CLOCKS ARE ALIGNED TO GNSS TIME                      
/* G:C1WC2W R:C1PC2P E:C1XC5X C:C2IC6I J:C1CC2S             
/* PCV:IGS14_2163 OL/AL:FES2004  NONE     YN ORB:CoN CLK:CoN
*  2021 08 24  6 45  0.00000000
PC06 -11651.386224  40608.684931   1025.715214    799.830234
PC07  -2598.477087  29506.413629 -29945.897198    -23.591832
PC08 -24115.379580  22906.889188  25777.351255   -927.681098
PC09  -6166.724507  40916.737045  -8960.106597    -51.046564
PC10   3395.558763  31443.077735 -27418.120380     -5.863602
PC11  17030.981934 -13215.560806  17807.197180    534.695501
PC12  13894.210814   6691.571838  23286.782807    774.464341
PC13  -7709.989713  24724.216356  33303.139001    384.544864
PC14  17724.246076  -2528.815464 -21373.169143    696.889819
PC16 -12807.581626  40164.190763   3478.466278   -844.606731
PC19 -10805.395808  11650.539250  22959.102958    958.525579
PC20 -21123.305569  -5356.525338  17458.431111   -813.738137
PC21  19290.918938  20112.866465  -1171.494378   -936.968720
PC22   6100.539449  22500.766145  15312.566275   -950.314870
PC23   3055.759768 -16805.229574  22081.739526   -961.032840
PC24  27284.907743  -1443.624660  -5729.717993   -964.147024
PC25  20861.757335 -13891.930507  12289.819512   -865.614829
PC26  18004.880468   9750.096546 -18978.712432    860.045510
PC27  -9411.881360 -16368.860051 -20566.017826    585.923703
PC28   3851.164390 -26690.061103  -7204.619168    -34.853777
PC29 -13994.274443  21815.525652 -10347.678511    437.550623
PC30 -16895.664092   3463.572978 -21948.780554    478.434346
PC32 -19448.826344 -19988.232479   1151.308724   -934.913525
PC33  10800.006907 -11679.068761 -22928.388252   -963.149541
PC34  17033.282710  -4310.835467  21664.915591   -598.042634
PC35  -3190.124235  26887.437153   6805.041875   -125.202304
PC36 -21472.170219  13208.923055 -11935.379413   -747.844221
PC37 -16865.717041 -10717.481197  19497.267169   -861.946400
PC38 -21282.688518  25267.276354  26111.892420    170.715846
PC39 -14361.938467  38362.935818  10308.584182     32.904778
PC40  -6202.807571  24232.195383 -33903.124541    192.906005
PC41  -5893.509206 -22413.038329 -15499.467987   -952.431473
PC42  21351.873796   6095.786627 -16854.175634   -938.655480
PC43  14357.050015 -21349.146320  10780.291120   -882.041144
PC44   9922.480719  16297.474111  20361.576525    356.682567
PC45  -2844.342207  16665.467471 -22185.981033    528.856415
PC46 -27396.420872   2274.164265   4708.635013    117.853900
PE01  15781.846061 -11198.262105  22407.525632  -1178.227578
PE02 -15637.042154  11272.167667 -22452.922241    242.031442
PE03  -8804.851583  20695.626961  19234.341742   -467.042872
PE04  -4750.622591 -29009.054669  -3487.715858   -841.610338
PE05 -17410.594867     94.245817  23940.112193   -254.840794
PE07  15769.187459  20314.473345 -14642.884448   -577.468912
PE08   5144.687853  28970.343620   3160.274861   5949.143707
PE09 -15845.146436 -20126.053345  14851.687106   5555.662205
PE11 -13746.671328  -9029.349146 -24625.259230   5532.992823
PE12   4704.018206 -22122.015653 -19098.383572   5044.939678
PE13  13341.180509   9340.583439  24714.524157    420.652811
PE14 -19219.051662   7622.257838 -23431.161346  -1546.257389
PE15  -4673.985901  22092.377537  19134.316144    796.255070
PE18  10979.363689 -19418.075161  13231.115582  -1696.208793
PE19  10133.121880 -18685.530692 -20595.592589    359.958039
PE21  27977.316879   1265.024455   9587.834439   -683.804547
PE24 -23892.623724 -14174.195417  10189.386718  -1079.553595
PE25 -28039.086106  -1440.034838  -9364.178250   -544.262011
PE26  23724.478787  -9518.004690  14931.306933   1425.700276
PE27  24577.836045  13602.321804  -9326.956105   -104.748150
PE30   5410.236801  17847.198501 -22988.088785   2676.902944
PE31  -6738.928899 -17860.416532  22637.570383   -484.768977
PE33  19891.266896 -21800.874166  -2301.151668   -465.872106
PE36 -23450.726317   8858.629753 -15742.960717   -252.661404
PG01   8238.871426 -18898.121862 -16823.221066    588.422892
PG02 -21940.077710  14479.323057  -3397.492606   -628.218769
PG03   -403.074903 -16256.253434 -21123.312581   -264.961410
PG04    928.582301 -26354.130217  -2857.824819   -204.123384
PG05 -12914.304118  10256.677842  20687.680788    -52.116481
PG06 -22022.287095   3331.751627 -14454.301051     61.425448
PG07  -7536.135934 -13691.904367  21823.834659    231.372274
PG08   7190.661784 -21670.299810  13290.869991    -33.811031
PG09  -7927.607572 -24012.451407   8021.104860   -359.566466
PG10  23973.564438  11784.607512    392.054564   -188.796376
PG12  -1097.718062  16145.185343 -21335.982328    -87.308749
PG13 -12862.029243  15148.212867  17409.551536    175.628973
PG14 -23509.267010 -12416.675842   -248.755322     16.843156
PG15  -4901.007466  22649.819735  12281.737250   -126.169277
PG16  18171.439623  -4104.384275  18860.751879   -378.845224
PG17 -12426.972884 -14133.496160 -18309.260747    494.085943
PG18   9059.865685  12029.856452  21866.007432    329.814462
PG19 -14615.016294  -4497.377811 -22008.165019     43.686901
PG20 -22085.941800   3870.589875  14000.860914    519.493521
PG21  14797.061022 -19616.015522  -8669.126547    138.940704
PG22   7368.832097 -13932.159700 -21191.477316   -530.605886
PG23  17782.984552  16385.806581  11041.072865     66.710858
PG24 -11157.839617  20569.673573 -12431.574707    217.041241
PG25  10617.032071  18076.158426 -16727.534934    196.432419
PG26  24650.334048   2710.131877   9825.379623    126.215984
PG27  12328.537720 -12629.315644  19548.453431   -182.831784
PG28 -23779.830810  -9596.549058  -5970.418173    514.227471
PG29   4170.682514  25433.102240   6229.507455   -400.987731
PG30 -18065.373731  -4946.020877  18987.567362   -465.531123
PG31  23247.924236  -4394.289426 -12615.997194   -135.959098
PG32  14656.260107  10224.166625 -19590.669030      5.386734
PR01  -5108.589433 -20592.311527 -14173.249712     84.318950
PR02 -15088.302681 -19685.144039   5860.960015    490.799080
PR03 -14839.248527  -6244.582280  19806.266768     41.726513
PR04  -6086.494602  10309.395529  22549.083700    101.454309
PR05   5894.985658  21302.009841  12762.626816     77.689209
PR07  14652.350405   5744.206817 -20055.549021    -41.560880
PR08   6112.387269 -10405.732443 -22417.641935    -60.564823
PR09  17878.269691   7438.951722 -16539.264131      9.631053
PR11  18778.509724  -8027.254349  15288.946977     47.063836
PR12    476.301954 -11019.557281  23033.086261    256.189864
PR13 -17252.886071  -7535.812584  17205.170459    -59.613325
PR14 -25506.685256    530.468725    600.852968     67.996782
PR15 -18451.111597   8021.732424 -15656.407727    101.891507
PR16   1255.292517  11125.949911 -22935.141761    -20.163627
PR17 -13791.815863   5587.719332 -20700.550999    452.467375
PR18 -14812.203919  19172.312698  -8039.989396     88.012906
PR19  -9118.058812  22426.316074   8011.166384   -156.606056
PR20   4155.551748  12158.727730  22043.937789    -54.686146
PR21  14150.997162  -6891.748144  20079.747310   -233.868080
PR22  14671.655140 -19565.682538   7077.535893   -129.490247
PR24  -5231.421158 -11686.289753 -22054.703019     55.748127
EOF
